STARLINK-2369
1 27909C 21021BB  21325.02364595  .00003337  00000-0  22357-3 0  3253
2 27909  53.0543 118.1251 0001349  94.1983 287.8385 15.06397287    11
